start=new Date('2023-06-04T00:00:00.000Z').valueOf();
sats=[{"MEAN_MOTION_DOT":"0.00016067","SITE":"AFETR","REV_AT_EPOCH":"14758","LAUNCH_DATE":"2020-10-06","TIME_SYSTEM":"UTC","CENTER_NAME":"EARTH","MEAN_MOTION_DDOT":"0.0000000000000","INCLINATION":"53.0555","ECCENTRICITY":"0.00011270","ELEMENT_SET_NO":"999","COUNTRY_CODE":"US","PERIAPSIS":"546.418","EPOCH":"2023-06-03T21:04:46.677792","TLE_LINE2":"2 46563  53.0555   9.8353 0001127  68.0006 292.1103 15.06404771147586","TLE_LINE1":"1 46563U 20070AH  23154.87831803  .00016067  00000-0  10949-2 0  9991","RA_OF_ASC_NODE":"9.8353","OBJECT_NAME":"STARLINK-1730","SEMIMAJOR_AXIS":"6925.334","MEAN_ANOMALY":"292.1103","NORAD_CAT_ID":"46563","EPHEMERIS_TYPE":"0","OBJECT_ID":"2020-070AH","BSTAR":"0.00109490000000","APOAPSIS":"547.979","OBJECT_TYPE":"PAYLOAD","FILE":"3924324","DECAY_DATE":null,"MEAN_MOTION":"15.06404771","REF_FRAME":"TEME","PERIOD":"95.592","GP_ID":"233140916","MEAN_ELEMENT_THEORY":"SGP4","RCS_SIZE":"LARGE","ARG_OF_PERICENTER":"68.0006","CLASSIFICATION_TYPE":"U"},{"APOAPSIS":"547.845","MEAN_ANOMALY":"248.7164","NORAD_CAT_ID":"46564","EPHEMERIS_TYPE":"0","BSTAR":"0.00149720000000","OBJECT_ID":"2020-070AJ","DECAY_DATE":null,"MEAN_MOTION":"15.06409678","PERIOD":"95.592","REF_FRAME":"TEME","GP_ID":"233140666","OBJECT_TYPE":"PAYLOAD","FILE":"3924324","RCS_SIZE":"LARGE","MEAN_ELEMENT_THEORY":"SGP4","CLASSIFICATION_TYPE":"U","ARG_OF_PERICENTER":"111.3927","LAUNCH_DATE":"2020-10-06","TIME_SYSTEM":"UTC","CENTER_NAME":"EARTH","MEAN_MOTION_DDOT":"0.0000000000000","MEAN_MOTION_DOT":"0.00022095","SITE":"AFETR","REV_AT_EPOCH":"14758","EPOCH":"2023-06-03T20:38:13.898976","PERIAPSIS":"546.523","TLE_LINE1":"1 46564U 20070AJ  23154.85988309  .00022095  00000-0  14972-2 0  9992","TLE_LINE2":"2 46564  53.0542   9.9233 0000955 111.3927 248.7164 15.06409678147588","INCLINATION":"53.0542","ECCENTRICITY":"0.00009550","ELEMENT_SET_NO":"999","COUNTRY_CODE":"US","RA_OF_ASC_NODE":"9.9233","OBJECT_NAME":"STARLINK-1733","SEMIMAJOR_AXIS":"6925.319"},{"COUNTRY_CODE":"US","ELEMENT_SET_NO":"999","ECCENTRICITY":"0.00010700","INCLINATION":"53.0545","TLE_LINE1":"1 46565U 20070AK  23154.90411362  .00018779  00000-0  12762-2 0  9998","TLE_LINE2":"2 46565  53.0545   9.7215 0001070 120.0626 240.0469 15.06401520147583","PERIAPSIS":"546.468","EPOCH":"2023-06-03T21:41:55.416768","SITE":"AFETR","REV_AT_EPOCH":"14758","MEAN_MOTION_DOT":"0.00018779","MEAN_MOTION_DDOT":"0.0000000000000","CENTER_NAME":"EARTH","LAUNCH_DATE":"2020-10-06","TIME_SYSTEM":"UTC","SEMIMAJOR_AXIS":"6925.344","OBJECT_NAME":"STARLINK-1735","RA_OF_ASC_NODE":"9.7215","FILE":"3924324","OBJECT_TYPE":"PAYLOAD","GP_ID":"233139414","REF_FRAME":"TEME","PERIOD":"95.592","DECAY_DATE":null,"MEAN_MOTION":"15.06401520","BSTAR":"0.00127620000000","OBJECT_ID":"2020-070AK","EPHEMERIS_TYPE":"0","NORAD_CAT_ID":"46565","MEAN_ANOMALY":"240.0469","APOAPSIS":"547.950","ARG_OF_PERICENTER":"120.0626","CLASSIFICATION_TYPE":"U","MEAN_ELEMENT_THEORY":"SGP4","RCS_SIZE":"LARGE"},{"EPOCH":"2023-06-03T21:20:42.374112","PERIAPSIS":"546.547","TLE_LINE1":"1 46566U 20070AL  23154.88937933  .00010414  00000-0  71705-3 0  9994","TLE_LINE2":"2 46566  53.0551   9.7877 0000979  71.0085 289.1010 15.06396419147582","INCLINATION":"53.0551","ECCENTRICITY":"0.00009790","ELEMENT_SET_NO":"999","COUNTRY_CODE":"US","LAUNCH_DATE":"2020-10-06","TIME_SYSTEM":"UTC","CENTER_NAME":"EARTH","MEAN_MOTION_DDOT":"0.0000000000000","MEAN_MOTION_DOT":"0.00010414","REV_AT_EPOCH":"14758","SITE":"AFETR","RA_OF_ASC_NODE":"9.7877","OBJECT_NAME":"STARLINK-1740","SEMIMAJOR_AXIS":"6925.360","DECAY_DATE":null,"MEAN_MOTION":"15.06396419","REF_FRAME":"TEME","PERIOD":"95.592","GP_ID":"233140165","FILE":"3924324","OBJECT_TYPE":"PAYLOAD","APOAPSIS":"547.903","MEAN_ANOMALY":"289.1010","NORAD_CAT_ID":"46566","EPHEMERIS_TYPE":"0","OBJECT_ID":"2020-070AL","BSTAR":"0.00071705000000","CLASSIFICATION_TYPE":"U","ARG_OF_PERICENTER":"71.0085","RCS_SIZE":"LARGE","MEAN_ELEMENT_THEORY":"SGP4"},{"RA_OF_ASC_NODE":"9.6572","OBJECT_NAME":"STARLINK-1741","SEMIMAJOR_AXIS":"6925.342","INCLINATION":"53.0540","ECCENTRICITY":"0.00010210","ELEMENT_SET_NO":"999","COUNTRY_CODE":"US","PERIAPSIS":"546.500","EPOCH":"2023-06-03T22:03:09.528192","TLE_LINE2":"2 46567  53.0540   9.6572 0001021  64.7361 295.3733 15.06402001147594","TLE_LINE1":"1 46567U 20070AM  23154.91886028  .00017839  00000-0  12134-2 0  9995","MEAN_MOTION_DOT":"0.00017839","SITE":"AFETR","REV_AT_EPOCH":"14759","LAUNCH_DATE":"2020-10-06","TIME_SYSTEM":"UTC","MEAN_MOTION_DDOT":"0.0000000000000","CENTER_NAME":"EARTH","ARG_OF_PERICENTER":"64.7361","CLASSIFICATION_TYPE":"U","MEAN_ELEMENT_THEORY":"SGP4","RCS_SIZE":"LARGE","FILE":"3924324","OBJECT_TYPE":"PAYLOAD","MEAN_MOTION":"15.06402001","DECAY_DATE":null,"REF_FRAME":"TEME","PERIOD":"95.592","GP_ID":"233140416","MEAN_ANOMALY":"295.3733","NORAD_CAT_ID":"46567","EPHEMERIS_TYPE":"0","BSTAR":"0.00121340000000","OBJECT_ID":"2020-070AM","APOAPSIS":"547.915"},{"APOAPSIS":"548.146","EPHEMERIS_TYPE":"0","OBJECT_ID":"2020-070AP","BSTAR":"0.00108590000000","MEAN_ANOMALY":"291.8525","NORAD_CAT_ID":"46569","GP_ID":"233141167","DECAY_DATE":null,"MEAN_MOTION":"15.06398380","REF_FRAME":"TEME","PERIOD":"95.592","OBJECT_TYPE":"PAYLOAD","FILE":"3924324","RCS_SIZE":"LARGE","MEAN_ELEMENT_THEORY":"SGP4","CLASSIFICATION_TYPE":"U","ARG_OF_PERICENTER":"68.2606","MEAN_MOTION_DDOT":"0.0000000000000","CENTER_NAME":"EARTH","LAUNCH_DATE":"2020-10-06","TIME_SYSTEM":"UTC","SITE":"AFETR","REV_AT_EPOCH":"14758","MEAN_MOTION_DOT":"0.00015929","PERIAPSIS":"546.291","EPOCH":"2023-06-03T20:48:51.796224","TLE_LINE1":"1 46569U 20070AP  23154.86726616  .00015929  00000-0  10859-2 0  9997","TLE_LINE2":"2 46569  53.0545   9.8843 0001339  68.2606 291.8525 15.06398380147580","ELEMENT_SET_NO":"999","COUNTRY_CODE":"US","INCLINATION":"53.0545","ECCENTRICITY":"0.00013390","SEMIMAJOR_AXIS":"6925.354","RA_OF_ASC_NODE":"9.8843","OBJECT_NAME":"STARLINK-1747"},{"GP_ID":"233139915","PERIOD":"94.529","REF_FRAME":"TEME","MEAN_MOTION":"15.23347512","DECAY_DATE":null,"FILE":"3924324","OBJECT_TYPE":"PAYLOAD","APOAPSIS":"497.222","BSTAR":"0.00044586000000","OBJECT_ID":"2020-070AQ","EPHEMERIS_TYPE":"0","NORAD_CAT_ID":"46570","MEAN_ANOMALY":"331.1271","CLASSIFICATION_TYPE":"U","ARG_OF_PERICENTER":"28.9843","RCS_SIZE":"LARGE","MEAN_ELEMENT_THEORY":"SGP4","TLE_LINE1":"1 46570U 20070AQ  23154.83709531  .00010411  00000-0  44586-3 0  9999","TLE_LINE2":"2 46570  53.0256 349.0159 0002135  28.9843 331.1271 15.23347512147879","EPOCH":"2023-06-03T20:05:25.034784","PERIAPSIS":"494.286","COUNTRY_CODE":"US","ELEMENT_SET_NO":"999","ECCENTRICITY":"0.00021350","INCLINATION":"53.0256","CENTER_NAME":"EARTH","MEAN_MOTION_DDOT":"0.0000000000000","LAUNCH_DATE":"2020-10-06","TIME_SYSTEM":"UTC","SITE":"AFETR","REV_AT_EPOCH":"14787","MEAN_MOTION_DOT":"0.00010411","SEMIMAJOR_AXIS":"6873.889","OBJECT_NAME":"STARLINK-1748","RA_OF_ASC_NODE":"349.0159"},{"MEAN_ANOMALY":"295.7291","NORAD_CAT_ID":"46572","EPHEMERIS_TYPE":"0","OBJECT_ID":"2020-070AS","BSTAR":"0.00141510000000","APOAPSIS":"547.967","FILE":"3924324","OBJECT_TYPE":"PAYLOAD","DECAY_DATE":null,"MEAN_MOTION":"15.06395308","PERIOD":"95.592","REF_FRAME":"TEME","GP_ID":"233139665","MEAN_ELEMENT_THEORY":"SGP4","RCS_SIZE":"LARGE","ARG_OF_PERICENTER":"64.3808","CLASSIFICATION_TYPE":"U","MEAN_MOTION_DOT":"0.00020856","SITE":"AFETR","REV_AT_EPOCH":"14730","LAUNCH_DATE":"2020-10-06","TIME_SYSTEM":"UTC","CENTER_NAME":"EARTH","MEAN_MOTION_DDOT":"0.0000000000000","INCLINATION":"53.0538","ECCENTRICITY":"0.00010670","ELEMENT_SET_NO":"999","COUNTRY_CODE":"US","EPOCH":"2023-06-03T21:43:13.446336","PERIAPSIS":"546.489","TLE_LINE2":"2 46572  53.0538  29.7071 0001067  64.3808 295.7291 15.06395308147309","TLE_LINE1":"1 46572U 20070AS  23154.90501674  .00020856  00000-0  14151-2 0  9995","RA_OF_ASC_NODE":"29.7071","OBJECT_NAME":"STARLINK-1531","SEMIMAJOR_AXIS":"6925.363"},{"GP_ID":"233119530","MEAN_MOTION":"15.82349392","DECAY_DATE":null,"PERIOD":"91.004","REF_FRAME":"TEME","FILE":"3924252","OBJECT_TYPE":"PAYLOAD","APOAPSIS":"326.697","EPHEMERIS_TYPE":"0","BSTAR":"0.00112800000000","OBJECT_ID":"2020-070AT","MEAN_ANOMALY":"301.5367","NORAD_CAT_ID":"46573","CLASSIFICATION_TYPE":"U","ARG_OF_PERICENTER":"329.1216","RCS_SIZE":"LARGE","MEAN_ELEMENT_THEORY":"SGP4","EPOCH":"2023-06-03T22:00:00.999936","PERIAPSIS":"320.905","TLE_LINE1":"1 46573U 20070AT  23154.91667824  .00244680  00000-0  11280-2 0  9990","TLE_LINE2":"2 46573  53.0370 302.4420 0004321 329.1216 301.5367 15.82349392148525","ELEMENT_SET_NO":"999","COUNTRY_CODE":"US","INCLINATION":"53.0370","ECCENTRICITY":"0.00043210","CENTER_NAME":"EARTH","MEAN_MOTION_DDOT":"0.0000000000000","LAUNCH_DATE":"2020-10-06","TIME_SYSTEM":"UTC","SITE":"AFETR","REV_AT_EPOCH":"14852","MEAN_MOTION_DOT":"0.00244680","SEMIMAJOR_AXIS":"6701.936","RA_OF_ASC_NODE":"302.4420","OBJECT_NAME":"STARLINK-1650"},{"DECAY_DATE":null,"MEAN_MOTION":"15.06401913","PERIOD":"95.592","REF_FRAME":"TEME","GP_ID":"233140667","FILE":"3924324","OBJECT_TYPE":"PAYLOAD","APOAPSIS":"547.983","MEAN_ANOMALY":"234.6147","NORAD_CAT_ID":"46574","EPHEMERIS_TYPE":"0","OBJECT_ID":"2020-070AU","BSTAR":"0.00125970000000","CLASSIFICATION_TYPE":"U","ARG_OF_PERICENTER":"125.4947","RCS_SIZE":"LARGE","MEAN_ELEMENT_THEORY":"SGP4","EPOCH":"2023-06-03T20:50:50.200512","PERIAPSIS":"546.433","TLE_LINE1":"1 46574U 20070AU  23154.86863658  .00018532  00000-0  12597-2 0  9995","TLE_LINE2":"2 46574  53.0545  14.8817 0001119 125.4947 234.6147 15.06401913147518","INCLINATION":"53.0545","ECCENTRICITY":"0.00011190","ELEMENT_SET_NO":"999","COUNTRY_CODE":"US","LAUNCH_DATE":"2020-10-06","TIME_SYSTEM":"UTC","CENTER_NAME":"EARTH","MEAN_MOTION_DDOT":"0.0000000000000","MEAN_MOTION_DOT":"0.00018532","REV_AT_EPOCH":"14751","SITE":"AFETR","RA_OF_ASC_NODE":"14.8817","OBJECT_NAME":"STARLINK-1660","SEMIMAJOR_AXIS":"6925.343"}];
